[{"OBJECT_NAME":"ONEWEB-0503","OBJECT_ID":"2022-138J","EPOCH":"2026-03-09T17:52:54.992352","MEAN_MOTION":13.19725106,"ECCENTRICITY":0.00014417,"INCLINATION":87.9238,"RA_OF_ASC_NODE":324.7656,"ARG_OF_PERICENTER":76.1728,"MEAN_ANOMALY":283.9565,"EPHEMERIS_TYPE":0,"CLASSIFICATION_TYPE":"U","NORAD_CAT_ID":54121,"ELEMENT_SET_NO":999,"REV_AT_EPOCH":16370,"BSTAR":-0.00018946401,"MEAN_MOTION_DOT":-6.3e-7,"MEAN_MOTION_DDOT":0},{"OBJECT_NAME":"DELTA 1 DEB","OBJECT_ID":"1975-052T","EPOCH":"2026-03-09T08:00:48.699072","MEAN_MOTION":13.24842524,"ECCENTRICITY":0.00998989,"INCLINATION":99.8162,"RA_OF_ASC_NODE":7.833,"ARG_OF_PERICENTER":161.9957,"MEAN_ANOMALY":329.5879,"EPHEMERIS_TYPE":0,"CLASSIFICATION_TYPE":"U","NORAD_CAT_ID":21282,"ELEMENT_SET_NO":999,"REV_AT_EPOCH":68464,"BSTAR":0.00012666868,"MEAN_MOTION_DOT":1.5e-7,"MEAN_MOTION_DDOT":0}]
